0 FENGYUN 1C DEB
1 38799U 99025EUP 13280.36176933  .00001433  00000-0  48394-3 0   389
2 38799 098.8254 327.9060 0227030 163.8090 197.0904 14.25002872158524
0 FENGYUN 1C DEB
1 38799U 99025EUP 13285.34711554  .00001559  00000-0  52983-3 0   395
2 38799 098.8215 332.9218 0222677 149.0122 212.4940 14.25021517159234
0 FENGYUN 1C DEB
1 38799U 99025EUP 13287.59399578  .00001667  00000-0  55879-3 0   401
2 38799 098.8161 335.1537 0227537 143.4152 218.3826 14.25031839159555
0 FENGYUN 1C DEB
1 38799U 99025EUP 13288.92805799  .00001731  00000-0  58182-3 0   419
2 38799 098.8124 336.4892 0225902 139.5326 222.3325 14.25038565159748
0 FENGYUN 1C DEB
1 38799U 99025EUP 13289.91105214  .00001803  00000-0  60607-3 0   420
2 38799 098.8118 337.4725 0225312 137.0332 224.9352 14.25044476159883
0 FENGYUN 1C DEB
1 38799U 99025EUP 13292.93023472  .00001927  00000-0  64716-3 0   434
2 38799 098.8110 340.4944 0224884 129.4655 232.8256 14.25060400160314
